{
  "type": "FeatureCollection",
  "features": [
    {
      "type": "Feature",
      "properties": {
        "norad_id": 40938,
        "name": "BEIDOU-3S IGSO-2S (C56)",
        "group": "gnss",
        "lat": -41.528303538068165,
        "lon": 129.97080012405215,
        "alt_km": 35633.82630630397,
        "timestamp": "2025-12-25T20:42:38.932523+00:00",
        "meta_object_name": "BEIDOU-3S IGSO-2S (C56)",
        "meta_object_id": "2015-053A",
        "meta_epoch": "2025-12-24T16:58:26.308416",
        "meta_mean_motion": 1.00267681,
        "meta_eccentricity": 0.00606582,
        "meta_inclination": 49.4921,
        "meta_ra_of_asc_node": 260.8653,
        "meta_arg_of_pericenter": 188.5708,
        "meta_mean_anomaly": 354.4321,
        "meta_ephemeris_type": 0,
        "meta_classification_type": "U",
        "meta_norad_cat_id": 40938,
        "meta_element_set_no": 999,
        "meta_rev_at_epoch": 3760,
        "meta_bstar": 0,
        "meta_mean_motion_dot": -1.14e-06,
        "meta_mean_motion_ddot": 0,
        "tle_line1": "1 40938U 15053A   25358.70724894 -.00000114  00000+0  00000+0 0  9997",
        "tle_line2": "2 40938  49.4921 260.8653 0060658 188.5708 354.4321  1.00267681 37606"
      },
      "geometry": {
        "type": "Point",
        "coordinates": [
          129.97080012405215,
          -41.528303538068165
        ]
      }
    },
    {
      "type": "Feature",
      "properties": {
        "norad_id": 41019,
        "name": "GPS BIIF-11 (PRN 10)",
        "group": "gnss",
        "lat": 48.6668579851642,
        "lon": 85.49437225269901,
        "alt_km": 20463.425602491912,
        "timestamp": "2025-12-25T20:42:38.932537+00:00",
        "meta_object_name": "GPS BIIF-11 (PRN 10)",
        "meta_object_id": "2015-062A",
        "meta_epoch": "2025-12-23T18:41:09.894336",
        "meta_mean_motion": 2.00567076,
        "meta_eccentricity": 0.0111091,
        "meta_inclination": 56.8401,
        "meta_ra_of_asc_node": 37.5754,
        "meta_arg_of_pericenter": 230.2279,
        "meta_mean_anomaly": 128.8532,
        "meta_ephemeris_type": 0,
        "meta_classification_type": "U",
        "meta_norad_cat_id": 41019,
        "meta_element_set_no": 999,
        "meta_rev_at_epoch": 7431,
        "meta_bstar": 0,
        "meta_mean_motion_dot": -4.7e-07,
        "meta_mean_motion_ddot": 0,
        "tle_line1": "1 41019U 15062A   25357.77858674 -.00000047  00000+0  00000+0 0  9993",
        "tle_line2": "2 41019  56.8401  37.5754 0111091 230.2279 128.8532  2.00567076 74317"
      },
      "geometry": {
        "type": "Point",
        "coordinates": [
          85.49437225269901,
          48.6668579851642
        ]
      }
    },
    {
      "type": "Feature",
      "properties": {
        "norad_id": 41028,
        "name": "GSAT-15 (GAGAN/PRN 139)",
        "group": "gnss",
        "lat": 0.0043571614882010595,
        "lon": 138.75610595882353,
        "alt_km": 35788.59958441762,
        "timestamp": "2025-12-25T20:42:38.932549+00:00",
        "meta_object_name": "GSAT-15 (GAGAN/PRN 139)",
        "meta_object_id": "2015-065A",
        "meta_epoch": "2025-12-24T23:48:54.497952",
        "meta_mean_motion": 1.00271237,
        "meta_eccentricity": 0.00023786,
        "meta_inclination": 0.0157,
        "meta_ra_of_asc_node": 283.7036,
        "meta_arg_of_pericenter": 317.9399,
        "meta_mean_anomaly": 302.8547,
        "meta_ephemeris_type": 0,
        "meta_classification_type": "U",
        "meta_norad_cat_id": 41028,
        "meta_element_set_no": 999,
        "meta_rev_at_epoch": 3705,
        "meta_bstar": 0,
        "meta_mean_motion_dot": -2.37e-06,
        "meta_mean_motion_ddot": 0,
        "tle_line1": "1 41028U 15065A   25358.99229743 -.00000237  00000+0  00000+0 0  9991",
        "tle_line2": "2 41028   0.0157 283.7036 0002378 317.9399 302.8547  1.00271237 37057"
      },
      "geometry": {
        "type": "Point",
        "coordinates": [
          138.75610595882353,
          0.0043571614882010595
        ]
      }
    },
    {
      "type": "Feature",
      "properties": {
        "norad_id": 41174,
        "name": "GSAT0209 (GALILEO 12)",
        "group": "gnss",
        "lat": -54.93661174053398,
        "lon": 29.984663974647283,
        "alt_km": 23224.846722554375,
        "timestamp": "2025-12-25T20:42:38.932562+00:00",
        "meta_object_name": "GSAT0209 (GALILEO 12)",
        "meta_object_id": "2015-079A",
        "meta_epoch": "2025-12-21T21:22:17.332896",
        "meta_mean_motion": 1.70474556,
        "meta_eccentricity": 0.00025231,
        "meta_inclination": 55.7178,
        "meta_ra_of_asc_node": 106.13,
        "meta_arg_of_pericenter": 342.7574,
        "meta_mean_anomaly": 17.2091,
        "meta_ephemeris_type": 0,
        "meta_classification_type": "U",
        "meta_norad_cat_id": 41174,
        "meta_element_set_no": 999,
        "meta_rev_at_epoch": 6175,
        "meta_bstar": 0,
        "meta_mean_motion_dot": 5e-08,
        "meta_mean_motion_ddot": 0,
        "tle_line1": "1 41174U 15079A   25355.89047839  .00000005  00000+0  00000+0 0  9990",
        "tle_line2": "2 41174  55.7178 106.1300 0002523 342.7574  17.2091  1.70474556 61755"
      },
      "geometry": {
        "type": "Point",
        "coordinates": [
          29.984663974647283,
          -54.93661174053398
        ]
      }
    },
    {
      "type": "Feature",
      "properties": {
        "norad_id": 41175,
        "name": "GSAT0208 (GALILEO 11)",
        "group": "gnss",
        "lat": 29.899230791409163,
        "lon": -97.0401364553145,
        "alt_km": 23223.62558005,
        "timestamp": "2025-12-25T20:42:38.932573+00:00",
        "meta_object_name": "GSAT0208 (GALILEO 11)",
        "meta_object_id": "2015-079B",
        "meta_epoch": "2025-12-24T10:58:05.169792",
        "meta_mean_motion": 1.70474188,
        "meta_eccentricity": 0.0001919,
        "meta_inclination": 55.7178,
        "meta_ra_of_asc_node": 106.0566,
        "meta_arg_of_pericenter": 349.2148,
        "meta_mean_anomaly": 10.7717,
        "meta_ephemeris_type": 0,
        "meta_classification_type": "U",
        "meta_norad_cat_id": 41175,
        "meta_element_set_no": 999,
        "meta_rev_at_epoch": 6221,
        "meta_bstar": 0,
        "meta_mean_motion_dot": 1.6e-07,
        "meta_mean_motion_ddot": 0,
        "tle_line1": "1 41175U 15079B   25358.45700428  .00000016  00000+0  00000+0 0  9998",
        "tle_line2": "2 41175  55.7178 106.0566 0001919 349.2148  10.7717  1.70474188 62212"
      },
      "geometry": {
        "type": "Point",
        "coordinates": [
          -97.0401364553145,
          29.899230791409163
        ]
      }
    },
    {
      "type": "Feature",
      "properties": {
        "norad_id": 41241,
        "name": "IRNSS-1E",
        "group": "gnss",
        "lat": 32.76535761573571,
        "lon": 157.52330003384623,
        "alt_km": 35790.661558022985,
        "timestamp": "2025-12-25T20:42:38.932585+00:00",
        "meta_object_name": "IRNSS-1E",
        "meta_object_id": "2016-003A",
        "meta_epoch": "2025-12-24T15:55:26.719680",
        "meta_mean_motion": 1.0026854,
        "meta_eccentricity": 0.00215442,
        "meta_inclination": 32.8513,
        "meta_ra_of_asc_node": 62.279,
        "meta_arg_of_pericenter": 188.9872,
        "meta_mean_anomaly": 192.7105,
        "meta_ephemeris_type": 0,
        "meta_classification_type": "U",
        "meta_norad_cat_id": 41241,
        "meta_element_set_no": 999,
        "meta_rev_at_epoch": 3633,
        "meta_bstar": 0,
        "meta_mean_motion_dot": -2.92e-06,
        "meta_mean_motion_ddot": 0,
        "tle_line1": "1 41241U 16003A   25358.66350370 -.00000292  00000+0  00000+0 0  9997",
        "tle_line2": "2 41241  32.8513  62.2790 0021544 188.9872 192.7105  1.00268540 36337"
      },
      "geometry": {
        "type": "Point",
        "coordinates": [
          157.52330003384623,
          32.76535761573571
        ]
      }
    },
    {
      "type": "Feature",
      "properties": {
        "norad_id": 41328,
        "name": "GPS BIIF-12 (PRN 32)",
        "group": "gnss",
        "lat": 4.246821743014785,
        "lon": 99.27359448681337,
        "alt_km": 20308.717489393734,
        "timestamp": "2025-12-25T20:42:38.932596+00:00",
        "meta_object_name": "GPS BIIF-12 (PRN 32)",
        "meta_object_id": "2016-007A",
        "meta_epoch": "2025-12-24T08:38:21.777792",
        "meta_mean_motion": 2.00560136,
        "meta_eccentricity": 0.00927395,
        "meta_inclination": 55.4125,
        "meta_ra_of_asc_node": 96.3958,
        "meta_arg_of_pericenter": 243.8734,
        "meta_mean_anomaly": 115.1833,
        "meta_ephemeris_type": 0,
        "meta_classification_type": "U",
        "meta_norad_cat_id": 41328,
        "meta_element_set_no": 999,
        "meta_rev_at_epoch": 7233,
        "meta_bstar": 0,
        "meta_mean_motion_dot": 1.2e-07,
        "meta_mean_motion_ddot": 0,
        "tle_line1": "1 41328U 16007A   25358.35997428  .00000012  00000+0  00000+0 0  9993",
        "tle_line2": "2 41328  55.4125  96.3958 0092739 243.8734 115.1833  2.00560136 72333"
      },
      "geometry": {
        "type": "Point",
        "coordinates": [
          99.27359448681337,
          4.246821743014785
        ]
      }
    }
  ]
}